[{"OBJECT_NAME":"STARLINK-5455","OBJECT_ID":"2023-021AS","EPOCH":"2026-03-09T16:38:53.876832","MEAN_MOTION":14.98332438,"ECCENTRICITY":0.000339,"INCLINATION":70.0008,"RA_OF_ASC_NODE":164.5072,"ARG_OF_PERICENTER":273.9527,"MEAN_ANOMALY":86.1245,"EPHEMERIS_TYPE":0,"CLASSIFICATION_TYPE":"U","NORAD_CAT_ID":55668,"ELEMENT_SET_NO":999,"REV_AT_EPOCH":16927,"BSTAR":-4.2750884e-5,"MEAN_MOTION_DOT":-6.03e-6,"MEAN_MOTION_DDOT":0},{"OBJECT_NAME":"SICH-1","OBJECT_ID":"1995-046A","EPOCH":"2026-03-09T16:32:37.076064","MEAN_MOTION":14.94365961,"ECCENTRICITY":0.00171667,"INCLINATION":82.5243,"RA_OF_ASC_NODE":136.8069,"ARG_OF_PERICENTER":299.5667,"MEAN_ANOMALY":60.3842,"EPHEMERIS_TYPE":0,"CLASSIFICATION_TYPE":"U","NORAD_CAT_ID":23657,"ELEMENT_SET_NO":999,"REV_AT_EPOCH":65112,"BSTAR":0.0001874143,"MEAN_MOTION_DOT":2.046e-5,"MEAN_MOTION_DDOT":0}]
